{
    "links": {
        "self": "http://www.neowsapp.com/rest/v1/neo/3477699?api_key=iIulBulltgU6a56xZRHN4H3l9WmuAYTsLGpBGhQ2"
    },
    "id": "3477699",
    "neo_reference_id": "3477699",
    "name": "(2009 WM6)",
    "designation": "2009 WM6",
    "nasa_jpl_url": "http://ssd.jpl.nasa.gov/sbdb.cgi?sstr=3477699",
    "absolute_magnitude_h": 23.8,
    "estimated_diameter": {
        "kilometers": {
            "estimated_diameter_min": 0.046190746,
            "estimated_diameter_max": 0.1032856481
        },
        "meters": {
            "estimated_diameter_min": 46.1907460282,
            "estimated_diameter_max": 103.2856480504
        },
        "miles": {
            "estimated_diameter_min": 0.0287015901,
            "estimated_diameter_max": 0.0641787064
        },
        "feet": {
            "estimated_diameter_min": 151.544447199,
            "estimated_diameter_max": 338.8636855496
        }
    },
    "is_potentially_hazardous_asteroid": false,
    "close_approach_data": [
        {
            "close_approach_date": "2008-11-30",
            "close_approach_date_full": "2008-Nov-30 02:39",
            "epoch_date_close_approach": 1228012740000,
            "relative_velocity": {
                "kilometers_per_second": "11.388252452",
                "kilometers_per_hour": "40997.7088270502",
                "miles_per_hour": "25474.3819097857"
            },
            "miss_distance": {
                "astronomical": "0.4113399517",
                "lunar": "160.0112412113",
                "kilometers": "61535580.620222879",
                "miles": "38236436.7502745702"
            },
            "orbiting_body": "Earth"
        },
        {
            "close_approach_date": "2009-11-07",
            "close_approach_date_full": "2009-Nov-07 15:50",
            "epoch_date_close_approach": 1257609000000,
            "relative_velocity": {
                "kilometers_per_second": "15.8196816217",
                "kilometers_per_hour": "56950.8538380674",
                "miles_per_hour": "35387.0458195481"
            },
            "miss_distance": {
                "astronomical": "0.0773223371",
                "lunar": "30.0783891319",
                "kilometers": "11567256.933581977",
                "miles": "7187560.1669342026"
            },
            "orbiting_body": "Earth"
        },
        {
            "close_approach_date": "2149-08-09",
            "close_approach_date_full": "2149-Aug-09 04:48",
            "epoch_date_close_approach": 5667770880000,
            "relative_velocity": {
                "kilometers_per_second": "14.5161283736",
                "kilometers_per_hour": "52258.062144973",
                "miles_per_hour": "32471.1275589139"
            },
            "miss_distance": {
                "astronomical": "0.1465108284",
                "lunar": "56.9927122476",
                "kilometers": "21917707.860575508",
                "miles": "13619032.1416496904"
            },
            "orbiting_body": "Venus"
        },
        {
            "close_approach_date": "2149-11-15",
            "close_approach_date_full": "2149-Nov-15 16:59",
            "epoch_date_close_approach": 5676281940000,
            "relative_velocity": {
                "kilometers_per_second": "21.1605328067",
                "kilometers_per_hour": "76177.9181041978",
                "miles_per_hour": "47333.9958353555"
            },
            "miss_distance": {
                "astronomical": "0.2617463555",
                "lunar": "101.8193322895",
                "kilometers": "39156697.263062785",
                "miles": "24330843.443065033"
            },
            "orbiting_body": "Earth"
        }
    ],
    "orbital_data": {
        "orbit_id": "7",
        "orbit_determination_date": "2017-04-06 08:59:08",
        "first_observation_date": "2009-11-18",
        "last_observation_date": "2009-11-23",
        "data_arc_in_days": 5,
        "observations_used": 23,
        "orbit_uncertainty": "9",
        "minimum_orbit_intersection": ".0597007",
        "jupiter_tisserand_invariant": "5.721",
        "epoch_osculation": "2455154.5",
        "eccentricity": ".3457901926305318",
        "semi_major_axis": "1.056387985209782",
        "inclination": "19.84271434952306",
        "ascending_node_longitude": "231.4042727840961",
        "orbital_period": "396.5825551465828",
        "perihelion_distance": ".691099380311512",
        "perihelion_argument": "66.10350596374603",
        "aphelion_distance": "1.421676590108051",
        "perihelion_time": "2455072.281220662872",
        "mean_anomaly": "74.63455005081082",
        "mean_motion": ".9077555109980534",
        "equinox": "J2000",
        "orbit_class": {
            "orbit_class_type": "APO",
            "orbit_class_description": "Near-Earth asteroid orbits which cross the Earth’s orbit similar to that of 1862 Apollo",
            "orbit_class_range": "a (semi-major axis) > 1.0 AU; q (perihelion) < 1.017 AU"
        }
    },
    "is_sentry_object": false
}